[
    {
        "Altitude(m)": 624790.7894392145,
        "Argument of Periapsis(deg)": 0.0,
        "Eccentricity": 0.0,
        "Inclination(deg)": 60.0,
        "Latitude(deg)": -59.14709854457391,
        "Longitude(deg)": 31.03477894700209,
        "Mean Anomaly(deg)": -81.81820000000003,
        "RAAN(deg)": 205.0,
        "Satellite Name": "Test1 919",
        "Satellite Number": 919,
        "Semi-Major Axis(m)": 6980739.136638005,
        "Time(s)": 0
    },
    {
        "Altitude(m)": 624737.4438237178,
        "Argument of Periapsis(deg)": 0.00010418945913296404,
        "Eccentricity": 0.0,
        "Inclination(deg)": 60.0,
        "Latitude(deg)": -58.994551665731464,
        "Longitude(deg)": 32.15427935578092,
        "Mean Anomaly(deg)": -81.19809385453819,
        "RAAN(deg)": 204.99957995086024,
        "Satellite Name": "Test1 919",
        "Satellite Number": 919,
        "Semi-Major Axis(m)": 6980739.136638005,
        "Time(s)": 10
    }
]